[Satellite]
VERSION=1.1
NAME=GLOBALSTAR M093 [+]
NICKNAME=GLOBALSTAR M093 [+]
TLE1=1 39073U 13005B   17186.26023140 -.00000120  00000-0 -87860-4 0  9990
TLE2=2 39073  51.9811 112.2821 0000858 351.4014   8.6838 12.62262954204126
